Unnamed: 0,name,address,lat,lon
1,,110 VILLAGE CENTER DR FLAT ROCK NC 28731,35.27293,-82.44132
2,,2502 ASHEVILLE HWY HENDERSONVILLE NC 28791,35.34743,-82.4732
3,,1524 OLD US 25 HWY ZIRCONIA NC 28790,35.22476,-82.43292
4,,500 HOWARD GAP RD FLETCHER NC 28732,35.40916,-82.49786
5,,3 BANNER FARM RD HORSE SHOE NC 28742,35.34398,-82.55785
6,,1 BEARCAT BLVD HENDERSONVILLE NC 28791,35.32141,-82.46422
7,,271 BEARCAT BLVD HENDERSONVILLE NC 28792,35.32231,-82.46099
8,,310 LILY POND HENDERSONVILLE NC 28739,35.31247,-82.46364
9,,3555 HAYWOOD RD HENDERSONVILLE NC 28791,35.35845,-82.51445
10,,1735 5TH AVE W HENDERSONVILLE NC 28739,35.31497,-82.48449
11,,2025 SPARTANBURG HWY EAST FLAT ROCK NC 28726,35.28985,-82.42783
12,,2575 CHIMNEY ROCK RD HENDERSONVILLE NC 28792,35.3487,-82.43224
13,,117 OLETA RD HENDERSONVILLE NC 28792,35.32968,-82.37337
14,,650 DUNCAN HILL RD HENDERSONVILLE NC 28792,35.33655,-82.45494
15,,600 CAROLINA VILLAGE RD HENDERSONVILLE NC 28792,35.34434,-82.4476
16,,455 RESEARCH DR MILLS RIVER NC 28759,35.42525,-82.5608
17,,2567 ASHEVILLE HWY HENDERSONVILLE NC 28791,35.35149,-82.4754
18,,1141 HOWARD  GAP RD FLETCHER NC 28732,35.39814,-82.48327
19,,1821 WINDSOR DR HENDERSONVILLE NC 28791,35.32303,-82.49478
20,,3600 HAYWOOD RD HENDERSONVILLE NC 28791,35.36505,-82.51516
21,,23 ROXIE DR SALUDA NC 28773,35.21554,-82.37378
22,,272 GERTON HWY BAT CAVE NC 28710,35.45332,-82.29136
23,,950 UPWARD RD FLAT ROCK NC 28731,35.29512,-82.39417
24,,110 UPWARD RD EAST FLAT ROCK NC 28726,35.29399,-82.42476
25,,94 SCHOOL HOUSE RD MILLS RIVER NC 28759,35.3765,-82.56626
26,,118 SCHOOL ST HENDERSONVILLE NC 28739,35.29693,-82.48243
27,,191 PRESTON LN EAST FLAT ROCK NC 28726,35.27049,-82.43007
28,,2510 OLD KANUGA RD HENDERSONVILLE NC 28739,35.28464,-82.49253
29,,320 ETOWAH SCHOOL RD ETOWAH NC 28729,35.31437,-82.58721
30,,101 BRICKYARD RD ETOWAH NC 28729,35.31881,-82.59462
31,,38 TALLEY DR FLETCHER NC 28732,35.4109,-82.51279
32,,53 JETER MOUNTAIN RD HENDERSONVILLE NC 28739,35.24564,-82.54874
33,,143 S MILLS GAP RD HENDERSONVILLE NC 28792,35.39544,-82.39077
34,,3973 CHIMNEY ROCK RD HENDERSONVILLE NC 28792,35.3959,-82.34142
35,,300 OLD CANE CREEK RD FLETCHER NC 28732,35.42999,-82.49871
