Unnamed: 0,name,address,lat,lon
1,,404 SOUND RD HOLLY RIDGE NC 28445,34.49518,-77.54775
2,,118 HUBERT BLVD HUBERT NC 28539,34.7111,-77.25708
3,,400 N BAYSHORE BLVD JACKSONVILLE NC 28540,34.75064,-77.41993
4,,6181 NEW BERN HWY MAYSVILLE NC 28555,34.85447,-77.27479
5,,1401 OLD 30 RD MAYSVILLE NC 28555,34.79349,-77.25161
6,,1310 HARGETT ST JACKSONVILLE NC 28540,34.75279,-77.40865
7,,1077 NINE MILE RD RICHLANDS NC 28574,34.77384,-77.63057
8,,301 S WILMINGTON ST RICHLANDS NC 28574,34.89773,-77.54828
9,,677 BEAR CREEK RD HUBERT NC 28539,34.66065,-77.18765
10,,126 PARK LN SNEADS FERRY NC 28460,34.55382,-77.39367
11,,1104 MAIN ST EXT SWANSBORO NC 28584,34.69878,-77.13753
12,,3884 RICHLANDS HWY JACKSONVILLE NC 28540,34.77716,-77.49287
13,,110 TOWN POINT RD JACKSONVILLE NC 28540,34.67051,-77.47017
14,,1985 GUM BRANCH RD JACKSONVILLE NC 28540,34.79261,-77.43649
15,,333 FREEDOM WAY MIDWAY PARK NC 28544,34.71614,-77.31911
16,,1165 PINEY GREEN RD JACKSONVILLE NC 28546,34.76622,-77.34357
17,,910 PINE VALLEY RD JACKSONVILLE NC 28546,34.76164,-77.36506
18,,2957 CATHERINE LAKE RD RICHLANDS NC 28574,34.83759,-77.62341
19,,2031 PONY FARM RD JACKSONVILLE NC 28540,34.74667,-77.51138
20,,100 RECREATION LN JACKSONVILLE NC 28546,34.79382,-77.39829
21,,133 OLD FOLKSTONE RD HOLLY RIDGE NC 28445,34.53595,-77.50188
22,,173 BRIARNECK RD JACKSONVILLE NC 28540,34.82808,-77.52069
23,,4805 GUM BRANCH RD JACKSONVILLE NC 28540,34.83303,-77.46187
24,,1022 HAWS RUN RD JACKSONVILLE NC 28540,34.69044,-77.55484
