Unnamed: 0,name,address,lat,lon
1,,700 BROOKS AVE RALEIGH NC 27607,35.79703,-78.67214
2,,301 E WHITAKER MILL RD RALEIGH NC 27608,35.80772,-78.63728
3,,8808 OLD STAGE RD RALEIGH NC 27603,35.65488,-78.66756
4,,4309 AUBURN KNIGHTDALE RD RALEIGH NC 27610,35.69765,-78.54177
5,,450 CREECH RD GARNER NC 27529,35.71493,-78.59987
6,,1120 VANDORA SPRINGS RD GARNER NC 27529,35.70185,-78.62919
7,,1605 AVERSBORO RD GARNER NC 27529,35.68876,-78.61528
8,,1101 MAXWELL DR RALEIGH NC 27603,35.71195,-78.65347
9,,908 SEVENTH AVE GARNER NC 27529,35.70607,-78.62099
10,,901 CLAYMORE DR GARNER NC 27529,35.68743,-78.61806
11,,3707 MARSH CREEK RD RALEIGH NC 27604,35.81947,-78.57556
12,,109 RIDGE ST KNIGHTDALE NC 27545,35.78364,-78.47839
13,,3202 NORTHAMPTON ST RALEIGH NC 27609,35.82548,-78.65059
14,,4401 WILLOW OAK RD RALEIGH NC 27604,35.8063,-78.56101
15,,7071 FORESTVILLE RD KNIGHTDALE NC 27545,35.81042,-78.48691
16,,3120 NEW HOPE RD RALEIGH NC 27604,35.82467,-78.56861
17,,4828 CLIFTON RD KNIGHTDALE NC 27545,35.75257,-78.49602
18,,1900 MAIN CAMPUS DR RALEIGH NC 27606,35.75857,-78.68762
19,,5608 TEN TEN RD APEX NC 27539,35.68299,-78.74452
20,,2801 PINEY PLAINS RD CARY NC 27518,35.74392,-78.75493
21,,5993 YATES MILL POND RD RALEIGH NC 27606,35.73764,-78.72893
22,,10401 PENNY RD RALEIGH NC 27606,35.7137,-78.78339
23,,2100 NOBLE RD RALEIGH NC 27608,35.81045,-78.63451
24,,155 E CEDAR AVE WAKE FOREST NC 27587,35.98734,-78.5041
25,,1002 LUFKIN RD APEX NC 27539,35.71992,-78.82992
26,,53 HUNTER ST APEX NC 27502,35.73373,-78.84642
27,,2101 DAVIS DR CARY NC 27519,35.77772,-78.85071
28,,100 W LOCHMERE DR CARY NC 27518,35.72989,-78.77905
29,,8701 FALLS OF NEUSE RD RALEIGH NC 27615,35.89651,-78.61272
30,,12605 CAPITAL BLVD WAKE FOREST NC 27587,35.98887,-78.53401
31,,1629 BENNETT ST RALEIGH NC 27604,35.79634,-78.61888
32,,4011 CARYA DR RALEIGH NC 27610,35.77163,-78.57008
33,,4900 KAPLAN DR RALEIGH NC 27606,35.77763,-78.70404
34,,13116 NORWOOD RD RALEIGH NC 27614,35.94275,-78.68459
35,,4706 CREEDMOOR RD RALEIGH NC 27612,35.84597,-78.67954
36,,5420 EBENEZER CHURCH RD RALEIGH NC 27612,35.84888,-78.72375
37,,824 N BLOODWORTH ST RALEIGH NC 27604,35.79139,-78.63141
38,,1501 N HARRISON AVE CARY NC 27513,35.81877,-78.77298
39,,1500 N HARRISON AVE CARY NC 27513,35.81998,-78.77002
40,,2911 SW CARY PKWY CARY NC 27513,35.77084,-78.83237
41,,5018 DILLARD DR RALEIGH NC 27606,35.75344,-78.72364
42,,6894 LITCHFORD RD RALEIGH NC 27615,35.87402,-78.59527
43,,600 ORTEGA RD RALEIGH NC 27609,35.84004,-78.62941
44,,4600 WEST LAKE RD APEX NC 27539,35.66026,-78.76066
45,,1002 DOGWOOD DR ZEBULON NC 27597,35.83722,-78.31977
46,,1519 MORRISVILLE PKWY MORRISVILLE NC 27560,35.81141,-78.84657
47,,6910 FAYETTEVILLE RD RALEIGH NC 27603,35.6818,-78.68727
48,,3008 OLD RALEIGH RD APEX NC 27502,35.74069,-78.82185
49,,6175 OLD JENKS RD APEX NC 27523,35.75447,-78.85251
50,,300 ARBOR GREENE DR GARNER NC 27529,35.65546,-78.61682
51,,6104 ROCK SERVICE STATION RD RALEIGH NC 27603,35.60939,-78.66368
52,,2004 ROCK QUARRY RD RALEIGH NC 27610,35.7522,-78.61334
53,,1500 GLEN EDEN DR RALEIGH NC 27612,35.82733,-78.68448
54,,10316 BOXELDER DR RALEIGH NC 27613,35.92521,-78.71832
55,,8850 CHAPEL HILL RD CARY NC 27513,35.79515,-78.78977
56,,520 BUCK JONES RD RALEIGH NC 27606,35.77597,-78.73314
57,,5837 MAPLERIDGE RD RALEIGH NC 27609,35.86085,-78.62478
58,,7509 LEAD MINE RD RALEIGH NC 27615,35.88405,-78.66117
59,,5570 MUNFORD RD RALEIGH NC 27612,35.85847,-78.69981
60,,11905 NORWOOD RD RALEIGH NC 27613,35.93017,-78.72094
61,,291 LILES DEAN RD WENDELL NC 27591,35.79096,-78.38742
62,,11109 POOLE RD WENDELL NC 27591,35.76753,-78.40946
63,,130 N JUDD PKWY NE FUQUAY VARINA NC 27526,35.58644,-78.78108
64,,4801 SIX FORKS RD RALEIGH NC 27609,35.84523,-78.64491
65,,6400 HOLLY SPRINGS RD RALEIGH NC 27606,35.73971,-78.74386
66,,1226 N WHITE ST WAKE FOREST NC 27587,35.99375,-78.49122
67,,2101 HIGH HOUSE RD CARY NC 27519,35.78922,-78.85176
68,,9200 STRICKLAND RD RALEIGH NC 27615,35.90023,-78.64794
69,,4501 SPRING FOREST RD RALEIGH NC 27616,35.85683,-78.56591
70,,4020 CAPITAL BLVD RALEIGH NC 27604,35.83586,-78.57868
71,,9901 DURANT RD RALEIGH NC 27614,35.89963,-78.58043
72,,505 REEDY CREEK RD CARY NC 27513,35.79452,-78.7689
73,,1712 E MILLBROOK RD RALEIGH NC 27609,35.8494,-78.6068
74,,7100 HILBURN DR RALEIGH NC 27613,35.87452,-78.71432
75,,4400 OLD POOLE RD RALEIGH NC 27610,35.76287,-78.56583
76,,107 QUADE DR CARY NC 27513,35.81692,-78.80364
77,,8228 HEBRON CHURCH RD GARNER NC 27529,35.65502,-78.57968
78,,10225 CHAMBERS RD RALEIGH NC 27603,35.63135,-78.71013
79,,3808 ST JAMES CHURCH RD RALEIGH NC 27604,35.83408,-78.56974
80,,10810 GLOBE RD RALEIGH NC 27617,35.90063,-78.80427
81,,400 PEYTON ST RALEIGH NC 27610,35.77364,-78.60547
82,,2100 MORRISVILLE PKWY CARY NC 27519,35.81451,-78.86693
83,,301 STINSON AVE HOLLY SPRINGS NC 27540,35.6466,-78.82935
84,,950 HOLLY SPRINGS RD HOLLY SPRINGS NC 27540,35.65416,-78.81529
85,,401 HOLLY SPRINGS RD HOLLY SPRINGS NC 27540,35.65584,-78.828
86,,4216 KILDAIRE FARM RD APEX NC 27539,35.68414,-78.79799
87,,605 BRIDGE ST FUQUAY VARINA NC 27526,35.59242,-78.80973
88,,2255 HERBERT AKINS RD FUQUAY VARINA NC 27526,35.62006,-78.80349
89,,605 E YOUNG ST ROLESVILLE NC 27571,35.9174,-78.45222
90,,133 W OWEN AVE WAKE FOREST NC 27587,35.97783,-78.5138
91,,3313 WADE AVE RALEIGH NC 27607,35.80053,-78.67961
92,,3400 ROGERS RD WAKE FOREST NC 27587,35.94915,-78.51168
93,,816 E WILLIAMS ST APEX NC 27502,35.7226,-78.84572
94,,625 MAGDALA PL APEX NC 27502,35.72501,-78.87542
95,,7101 FOX RD RALEIGH NC 27616,35.8731,-78.55508
96,,8401 WILD WOOD FOREST DR RALEIGH NC 27616,35.89355,-78.55121
97,,10630 BEDFORDTOWN DR RALEIGH NC 27614,35.92569,-78.56586
98,,1300 FALLS RIVER AVE RALEIGH NC 27614,35.91126,-78.58844
99,,2300 WAKEFIELD PINES DR RALEIGH NC 27614,35.94595,-78.56871
100,,11501 FOREST PINES DR RALEIGH NC 27614,35.95368,-78.5472
101,,931 DURHAM RD WAKE FOREST NC 27587,35.97615,-78.54095
102,,1300 E MARTIN ST RALEIGH NC 27610,35.77552,-78.61834
103,,3829 FORESTVILLE RD RALEIGH NC 27616,35.87304,-78.51248
104,,3500 FORESTVILLE RD RALEIGH NC 27616,35.88237,-78.51041
105,,600 NEW HILL OLIVE CHAPEL RD APEX NC 27502,35.7307,-78.94871
106,,1751 OLIVE CHAPEL RD APEX NC 27502,35.73478,-78.89422
107,,8410 PRIDE WAY RALEIGH NC 27613,35.89046,-78.71928
108,,7481 SILVER VIEW LN RALEIGH NC 27613,35.88201,-78.73172
109,,300 W BALLENTINE ST HOLLY SPRINGS NC 27540,35.65064,-78.83637
110,,3921 OLD HOLLY SPRINGS APEX RD APEX NC 27539,35.67738,-78.86214
111,,1451 AVENT FERRY RD HOLLY SPRINGS NC 27540,35.63204,-78.85039
112,,332 PARKSIDE VALLEY DR MORRISVILLE NC 27560,35.84085,-78.86183
113,,2305 LAKE WHEELER RD RALEIGH NC 27603,35.74928,-78.66866
114,,309 AVIATION PKWY MORRISVILLE NC 27560,35.82951,-78.82039
115,,1621 WHITE OAK CHURCH RD APEX NC 27523,35.78032,-78.91888
116,,11555 GREEN LEVEL CHURCH RD CARY NC 27519,35.85937,-78.89955
117,,509 MILLS PARK DR CARY NC 27519,35.81036,-78.89647
118,,5415 HIGHCROFT DR CARY NC 27519,35.8006,-78.88391
119,,5857 BARWELL PARK DR RALEIGH NC 27610,35.73081,-78.55118
120,,5545 JONES SAUSAGE RD GARNER NC 27529,35.70727,-78.58676
121,,1100 JONES DAIRY RD WAKE FOREST NC 27587,35.94976,-78.472
122,,701 GRANITE FALLS BLVD ROLESVILLE NC 27571,35.92746,-78.46113
123,,2600 ROCK QUARRY RD RALEIGH NC 27610,35.74552,-78.6037
124,,408 ASHE AVE RALEIGH NC 27606,35.78065,-78.66099
125,,2128 MINGO BLUFF BLVD KNIGHTDALE NC 27545,35.77631,-78.5222
126,,1498 HODGE ROAD KNIGHTDALE NC 27545,35.78427,-78.52806
127,,3229 BURLINGTON MILLS RD WAKE FOREST NC 27587,35.92246,-78.52136
128,,4700 BURLINGTON MILLS RD ROLESVILLE NC 27571,35.91368,-78.47928
129,,1256 MCCAULEY ST RALEIGH NC 27601,35.76669,-78.64093
130,,505 MARTIN L KING JR BLVD RALEIGH NC 27601,35.76943,-78.62896
131,,501 S BOYLAN AVE RALEIGH NC 27603,35.7741,-78.65047
132,,1130 MARLBOROUGH RD RALEIGH NC 27610,35.79517,-78.60352
133,,2001 LAKE BOONE TRL RALEIGH NC 27607,35.81453,-78.68136
134,,700 NORTHBROOK DR RALEIGH NC 27609,35.84488,-78.6537
135,,1615 OBERLIN RD # A RALEIGH NC 27608,35.80466,-78.65733
136,,514 METHOD RD RALEIGH NC 27607,35.79318,-78.69386
137,,5611 JAGUAR PARK DR RALEIGH NC 27606,35.76766,-78.71773
138,,1701 RIDGE RD RALEIGH NC 27607,35.81213,-78.68532
139,,121 N TARBORO ST RALEIGH NC 27610,35.78143,-78.62273
140,,806 CALLOWAY DR RALEIGH NC 27610,35.75459,-78.62462
141,,2525 NOBLE RD RALEIGH NC 27608,35.81507,-78.63131
142,,4921 SIX FORKS RD RALEIGH NC 27609,35.84874,-78.64488
143,,3426 INGRAM DR RALEIGH NC 27604,35.83004,-78.59696
144,,5900 WHITTIER DR RALEIGH NC 27609,35.86216,-78.64448
145,,1001 COOPER RD RALEIGH NC 27610,35.76338,-78.58707
146,,2816 OBERLIN RD RALEIGH NC 27608,35.81396,-78.6576
147,,2001 LORIMER RD RALEIGH NC 27606,35.77504,-78.70156
148,,1905 SPRING FOREST RD RALEIGH NC 27615,35.86853,-78.60623
149,,5801 FALLS OF NEUSE RD RALEIGH NC 27609,35.85951,-78.61862
150,,1520 E MILLBROOK RD RALEIGH NC 27609,35.84879,-78.61059
151,,400 NEWTON RD RALEIGH NC 27615,35.87781,-78.64208
152,,4201 GREEN RD RALEIGH NC 27604,35.84113,-78.59113
153,,7600 FALLS OF NEUSE RD RALEIGH NC 27615,35.8873,-78.62604
154,,9425 BAILEYWICK RD RALEIGH NC 27615,35.90917,-78.66505
155,,1900 PLEASANT UNION CHURCH RD RALEIGH NC 27614,35.95027,-78.67346
156,,3200 PLEASANT UNION CHURCH RD RALEIGH NC 27614,35.9687,-78.64069
157,,2010 MCDONALD LN RALEIGH NC 27608,35.80676,-78.6549
158,,2001 BRASSFIELD RD RALEIGH NC 27614,35.93349,-78.62876
159,,8013 HUMIE OLIVE RD APEX NC 27502,35.7035,-78.91471
160,,4000 GLENAIRE CIR CARY NC 27511,35.77558,-78.78667
161,,600 WALNUT ST CARY NC 27511,35.77452,-78.76804
162,,1110 BUCK JONES RD RALEIGH NC 27606,35.76897,-78.74143
163,,1220 POND ST CARY NC 27511,35.76881,-78.7872
164,,940 REEDY CREEK RD CARY NC 27513,35.81274,-78.76829
165,,1413 HAMPTON VALLEY RD CARY NC 27511,35.75762,-78.77383
166,,1788 KILDAIRE FARM RD CARY NC 27511,35.74422,-78.78196
167,,1109 EVANS RD CARY NC 27513,35.80595,-78.79421
168,,1930 CLARK AVE RALEIGH NC 27605,35.78961,-78.65797
169,,1000 OLDE WEATHERSTONE WAY CARY NC 27513,35.79244,-78.81014
170,,2450 LAURA DUNCAN RD APEX NC 27523,35.75871,-78.82676
171,,101 WILKINSON AVE CARY NC 27513,35.79067,-78.78047
172,,805 CARY TOWNE BLVD CARY NC 27511,35.77706,-78.76214
173,,590 WESTHIGH ST CARY NC 27513,35.76629,-78.84101
174,,1401 OLD APEX RD CARY NC 27513,35.76988,-78.80707
175,,1050 NW MAYNARD RD CARY NC 27513,35.78137,-78.8084
176,,555 SW MAYNARD RD CARY NC 27511,35.7714,-78.79362
177,,120 SCHOOL CHAPEL DR RALEIGH NC 27603,35.78343,-78.65412
178,,5101 OAK PARK RD RALEIGH NC 27612,35.85397,-78.70408
179,,6119 CREEDMOOR RD RALEIGH NC 27612,35.86829,-78.68065
180,,1400 W MILLBROOK RD RALEIGH NC 27612,35.85877,-78.66186
181,,1601 LYNN RD RALEIGH NC 27612,35.87007,-78.66753
182,,7409 FALLS OF NEUSE RD RALEIGH NC 27615,35.88483,-78.63052
183,,8301 OLD LEAD MINE RD RALEIGH NC 27615,35.89174,-78.65672
184,,7000 CREEDMOOR RD RALEIGH NC 27613,35.88257,-78.67847
185,,1500 SAWMILL RD RALEIGH NC 27615,35.88412,-78.67648
186,,12621 STRICKLAND RD RALEIGH NC 27613,35.9075,-78.71113
187,,616 TUCKER ST RALEIGH NC 27603,35.78663,-78.64835
188,,10921 LEESVILLE RD RALEIGH NC 27613,35.91849,-78.73261
189,,12837 NORWOOD RD RALEIGH NC 27613,35.94047,-78.69682
190,,11905 STRICKLAND RD RALEIGH NC 27613,35.90496,-78.69677
191,,8032 RAY RD RALEIGH NC 27613,35.8919,-78.69854
192,,8933 FOWLER RD ZEBULON NC 27597,35.88505,-78.35467
193,,301 S ARENDELL AVE ZEBULON NC 27597,35.81885,-78.31029
194,,5101 ROLESVILLE RD WENDELL NC 27591,35.81415,-78.42451
195,,3409 NC 97 HWY WENDELL NC 27591,35.80425,-78.39432
196,,6400 CHAPEL HILL RD RALEIGH NC 27607,35.7905,-78.73315
197,,3331 BLUE RIDGE RD RALEIGH NC 27612,35.82525,-78.69815
198,,1500 GLENWOOD AVE RALEIGH NC 27608,35.7996,-78.64515
199,,1651 N MCLAURIN LN FUQUAY VARINA NC 27526,35.61257,-78.7708
200,,820 S MAIN ST FUQUAY VARINA NC 27526,35.57311,-78.80136
201,,6800 DWIGHT ROWLAND RD WILLOW SPRING NC 27592,35.59315,-78.72814
202,,5410 LOUISBURG RD RALEIGH NC 27616,35.84967,-78.56086
203,,10401 DURANT RD RALEIGH NC 27614,35.90238,-78.58824
204,,3024 OLIVE GROVE CHURCH RD CREEDMOOR NC 27522,36.04921,-78.73597
205,,7045 STONY HILL RD WAKE FOREST NC 27587,35.98352,-78.60942
206,,3704 BENSON RD GARNER NC 27529,35.62791,-78.61033
