Unnamed: 0,name,address,lat,lon
1,,7506 EMERALD DR EMERALD ISLE NC 28594,34.66704,-77.02802
2,,1219 ISLAND RD HARKERS ISLAND NC 28531,34.69339,-76.5495
3,,2370 MILL CREEK RD NEWPORT NC 28570,34.77503,-76.74869
4,,1329 SOUTH RIVER RD BEAUFORT NC 28516,34.96025,-76.59991
5,,1600 FISHER ST MOREHEAD CITY NC 28557,34.72454,-76.72441
6,,125 W FORT MACON RD ATLANTIC BEACH NC 28512,34.7008,-76.73992
7,,3820 BRIDGES ST MOREHEAD CITY NC 28557,34.72646,-76.76061
8,,4311 COUNTRY CLUB RD MOREHEAD CITY NC 28557,34.73571,-76.77451
9,,227 HWY 24 MOREHEAD CITY NC 28557,34.73323,-76.80483
10,,1011 ORANGE ST NEWPORT NC 28570,34.78518,-76.85674
11,,182 HOLLY SPRINGS RD NEWPORT NC 28570,34.80064,-76.90544
12,,3263 HWY 70 BEAUFORT BEAUFORT NC 28516,34.71482,-76.64671
13,,100 MUNICIPAL CIR PINE KNOLL SHORES NC 28512,34.70081,-76.82191
14,,100 MCQUEEN AVE NEWPORT NC 28570,34.76945,-76.85856
15,,275 OLD HWY 58 SWANSBORO NC 28584,34.69422,-77.07286
16,,1400 SALTER PATH RD SALTER PATH NC 28575,34.68751,-76.89043
17,,110 CACTUS ST NEWPORT NC 28570,34.72306,-76.94079
18,,1603 HIGHWAY 58 PELETIER NC 28584,34.73076,-77.07927
19,,141 MORRISTOWN RD STELLA NC 28582,34.78822,-77.12888
20,,4261 HWY 101 NEWPORT NC 28570,34.82228,-76.73352
21,,109 GOOSE POND RD MARSHALLBERG NC 28553,34.72805,-76.51527
22,,595 HWY 70 DAVIS DAVIS NC 28524,34.79934,-76.46222
23,,967 SEASHORE DR ATLANTIC NC 28511,34.88151,-76.34014
24,,2208 CEDAR ISLAND RD CEDAR ISLAND NC 28520,34.97448,-76.29905
25,,450 HWY 70 BETTIE BEAUFORT NC 28516,34.78735,-76.59387
26,,601 MULBERRY ST BEAUFORT NC 28516,34.72187,-76.65819
27,,107 SAFRIT DR BEAUFORT NC 28516,34.7175,-76.64975
28,,728 BOGUE LOOP RD NEWPORT NC 28570,34.70191,-77.0295
