Unnamed: 0,name,address,lat,lon
1,,101 STONE CHIMNEY RD SE SUPPLY NC 28462,34.0167,-78.26884
2,,1691 STANBURY RD SW SUPPLY NC 28462,33.94231,-78.29642
3,,125 WALL ST SHALLOTTE NC 28470,33.97438,-78.38107
4,,4126 PIGOTT RD SW SHALLOTTE NC 28470,33.92548,-78.37885
5,,5050 MAIN ST SHALLOTTE NC 28470,33.96765,-78.39342
6,,200 STATION TRL SUNSET BEACH NC 28468,33.88743,-78.50927
7,,758 LONGWOOD RD NW OCEAN ISLE BEACH NC 28469,33.96666,-78.51643
8,,5859 WACCAMAW SCHOOL RD ASH NC 28420,34.06393,-78.51262
9,,9400 OCEAN HWY W CALABASH NC 28467,33.92249,-78.5789
10,,114 SANDY CREEK DR LELAND NC 28451,34.28543,-78.15731
11,,1044 SABBATH HOME RD SUPPLY NC 28462,33.93023,-78.26942
12,,1 LEEDS RD BOILING SPRING LAKES NC 28461,34.02144,-78.06344
13,,3003 E OAK ISLAND DR OAK ISLAND NC 28465,33.91717,-78.13088
14,,106 E DOLPHIN DR OAK ISLAND NC 28465,33.91539,-78.16012
15,,575 RIVER RD LELAND NC 28451,34.22092,-77.98416
16,,1020 ZION HILL RD SE BOLIVIA NC 28422,33.9941,-78.23683
17,,4136 SOUTHPORT-SUPPLY RD SOUTHPORT NC 28461,33.9635,-78.08964
18,,1492 VILLAGE RD NE LELAND NC 28451,34.25672,-78.04631
19,,1212 MAGNOLIA VILLAGE WAY LELAND NC 28451,34.21316,-78.0289
20,,121 TOWN HALL RD LELAND NC 28451,34.23862,-78.00857
21,,6420 OCEAN HWY E WINNABOW NC 28479,34.1461,-78.09152
22,,25 REFERENDUM DR # BLDG N BOLIVIA NC 28422,34.05674,-78.16581
23,,1513 N HOWE ST # SUITE 1 SOUTHPORT NC 28461,33.93624,-78.02551
24,,705 N LORD ST SOUTHPORT NC 28461,33.92656,-78.02306
25,,8400 E OAK ISLAND DR OAK ISLAND NC 28465,33.90931,-78.08026
