Unnamed: 0,name,address,lat,lon
1,,2716 CASTLE HAYNE RD WILMINGTON NC 28401,34.29211,-77.91996
2,,1241 MILITARY CUTOFF RD WILMINGTON NC 28405,34.23291,-77.82824
3,,6211 GREENVILLE LP RD WILMINGTON NC 28409,34.19771,-77.84495
4,,5001 ORIOLE DR WILMINGTON NC 28403,34.23585,-77.86353
5,,250 VISION DR WILMINGTON NC 28403,34.24488,-77.8558
6,,802 COLLEGE RD N WILMINGTON NC 28405,34.25955,-77.8692
7,,3637 MIDDLE SOUND LOOP RD WILMINGTON NC 28411,34.26573,-77.8093
8,,3518 MASONBORO LOOP RD WILMINGTON NC 28409,34.17976,-77.86294
9,,4610 CAROLINA BCH RD WILMINGTON NC 28412,34.15735,-77.91195
10,,4912 COLLEGE RD S WILMINGTON NC 28412,34.14866,-77.89341
11,,401 8TH ST S WILMINGTON NC 28401,34.23106,-77.93826
12,,1802 15TH ST S WILMINGTON NC 28401,34.21526,-77.9281
13,,6710 OLD BRIDGE SITE RD CASTLE HAYNE NC 28429,34.3669,-77.90043
14,,602 COLONIAL DR WILMINGTON NC 28403,34.23045,-77.91407
15,,620 COLLEGE RD S WILMINGTON NC 28403,34.2246,-77.88177
16,,3702 PRINCESS PLACE DR WILMINGTON NC 28405,34.24324,-77.90092
17,,4099 17TH ST S WILMINGTON NC 28412,34.17673,-77.90544
18,,3020 WEB TRACE WILMINGTON NC 28409,34.19164,-77.88273
19,,4927 WRIGHTSVILLE AVE WILMINGTON NC 28403,34.2137,-77.87866
20,,4321 CAROLINA BEACH RD WILMINGTON NC 28412,34.16594,-77.91782
21,,629 HAMILTON DR WILMINGTON NC 28403,34.22567,-77.87585
22,,4 RUSS DR WRIGHTSVILLE BEACH NC 28480,34.21504,-77.80543
23,,415 2ND ST N WILMINGTON NC 28401,34.22955,-77.94649
24,,613 ALABAMA AVE WILMINGTON NC 28401,34.20782,-77.9412
25,,2601 PRINCESS PLACE DR WILMINGTON NC 28405,34.24515,-77.91349
26,,3801 WILSHIRE BLVD WILMINGTON NC 28403,34.223,-77.89384
27,,401 10TH ST WILMINGTON NC 28401,34.23133,-77.93496
28,,2606 NEWKIRK AVE WILMINGTON NC 28412,34.19191,-77.92286
29,,4305 SHIPYARD BLVD WILMINGTON NC 28403,34.20031,-77.89416
30,,70 SANDERS RD WILMINGTON NC 28412,34.12329,-77.90925
31,,6650 CAROLINA BEACH RD WILMINGTON NC 28412,34.09344,-77.89853
32,,6701 GORDON RD WILMINGTON NC 28411,34.26716,-77.83421
33,,7721 ALEXANDER RD WILMINGTON NC 28411,34.28465,-77.81037
34,,5524 MYRTLE GROVE RD WILMINGTON NC 28409,34.1334,-77.87778
35,,4853 MASONBORO LOOP RD WILMINGTON NC 28409,34.14686,-77.87067
36,,117 SETTLERS LN KURE BEACH NC 28449,33.99991,-77.91027
37,,4500 BLUE CLAY RD CASTLE HAYNE NC 28429,34.32337,-77.8781
38,,2501 COLLEGE RD N WILMINGTON NC 28405,34.29133,-77.87313
39,,1121 LAKE PARK BLVD N CAROLINA BEACH NC 28428,34.04526,-77.89934
40,,416 EDGEWATER CLUB RD WILMINGTON NC 28411,34.28668,-77.7744
41,,1200 PORTERS NECK RD WILMINGTON NC 28411,34.29343,-77.76595
42,,901 PINER RD WILMINGTON NC 28409,34.13731,-77.88401
43,,811 COLLEGE RD N WILMINGTON NC 28405,34.22021,-77.88282
